STARLINK-32365          
1 61625U 24191E   26068.26212938 -.00000967  00000+0 -25662-4 0  9990
2 61625  42.9950 156.6897 0000305 104.6492 255.4394 15.27574060 77471
FLOCK 4G-11             
1 62629U 25009W   26068.45629261  .00012672  00000+0  47740-3 0  9990
2 62629  97.3964 150.6183 0001611 333.5407  26.5750 15.27220677 63680
